[{"OBJECT_NAME":"STARLINK-36627","OBJECT_ID":"2026-020U","EPOCH":"2026-03-09T22:00:01.999584","MEAN_MOTION":15.68605288,"ECCENTRICITY":0.00014613,"INCLINATION":42.9998,"RA_OF_ASC_NODE":140.6895,"ARG_OF_PERICENTER":272.8635,"MEAN_ANOMALY":68.5573,"EPHEMERIS_TYPE":0,"CLASSIFICATION_TYPE":"U","NORAD_CAT_ID":67635,"ELEMENT_SET_NO":999,"REV_AT_EPOCH":604,"BSTAR":-0.018966671,"MEAN_MOTION_DOT":-0.01959305,"MEAN_MOTION_DDOT":0},{"OBJECT_NAME":"CZ-11 DEB","OBJECT_ID":"2025-255B","EPOCH":"2026-03-09T22:54:27.037440","MEAN_MOTION":15.52392921,"ECCENTRICITY":0.00133106,"INCLINATION":52.9927,"RA_OF_ASC_NODE":120.0728,"ARG_OF_PERICENTER":327.0296,"MEAN_ANOMALY":32.9881,"EPHEMERIS_TYPE":0,"CLASSIFICATION_TYPE":"U","NORAD_CAT_ID":66377,"ELEMENT_SET_NO":999,"REV_AT_EPOCH":1872,"BSTAR":0.00089565046,"MEAN_MOTION_DOT":0.00055721,"MEAN_MOTION_DDOT":0}]
